KUIPER-00053            
1 64513U 25134P   25278.50001156 -.02058594  00000+0 -15013+0 0  9999
2 64513  51.8905 191.1299 0003481 128.0237 278.1314 15.06703851  5737
KUIPER-00054            
1 64514U 25134Q   25278.50001156  .00019498  00000+0  89993-3 0  9998
2 64514  51.8786 189.3487 0008279 130.1787  77.3638 15.20198715  5648
KUIPER-00055            
1 64515U 25134R   25278.50001156 -.00832753  00000+0 -40218-1 0  9993
2 64515  51.8879 188.9396 0000490 177.2492 287.0635 15.20979745  5757
KUIPER-00056            
1 64516U 25134S   25278.50001156 -.02213397  00000+0 -16454+0 0  9996
2 64516  51.8851 191.8478 0003555 155.5953 336.5913 15.06259953  4189
KUIPER-00057            
1 64517U 25134T   25278.50001156 -.00020026  00000+0 -25395-2 0  9997
2 64517  51.8995 197.8642 0010456 121.5301 153.5651 14.80960285  5507
KUIPER-00058            
1 64518U 25134U   25278.50001156 -.00015219  00000+0 -11415-2 0  9994
2 64518  51.8866 193.0113 0005721 149.2258 126.7632 15.01617233  4712
KUIPER-00059            
1 64519U 25134V   25278.50001156 -.00032906  00000+0 -17322-2 0  9990
2 64519  51.8914 190.1708 0001544 284.9374 309.5662 15.14995987  3701
KUIPER-00060            
1 64520U 25134W   25278.50001156 -.01530872  00000+0 -96022-1 0  9991
2 64520  51.8832 190.2752 0001862 148.7077 314.7656 15.12261676  5298
